#dP2020  6 23  0  0  0.00000000      96 __u+U ITR00 FIT  IAC
## 2111 172800.00000000   900.00000000 59023 0.0000000000000
+  115   C01C02C03C04C05C06C07C08C09C10C11C12C13C14C16C19C20
+        C21C22C23C24C25C26C27C28C29C30C32C33C34C35C36C37E01
+        E02E03E04E05E07E08E09E11E12E13E14E15E18E19E21E24E25
+        E26E27E30E31E33E36G01G02G03G04G05G06G07G08G09G10G11
+        G12G13G14G15G16G17G18G19G20G21G22G24G25G26G27G28G29
+        G30G31G32J01J02J03J07R01R02R03R04R05R07R08R09R11R12
+        R13R14R15R16R17R18R19R20R21R22R23R24R26  0  0  0  0
++        14 13 13 13 13  8  9  9  8  8  8  8  8  7  8  8  8
++         8  8  7  8  8  7  8  8  0  8  8  8  8  8  8  8  4
++         4  4  4  4  4  5  4  4  5  5  4  4  4  5  4  4  4
++         4  4  4  4  5  5  3  3  3  3  3  3  3  3  3  3  4
++         3  3  4  3  4  3  3  3  3  3  3  3  3  4  3  4  3
++         3  3  4  8  8  8 16  6  6  6  6  5  5  5  5  6  6
++         6  6  5  6  6  6  6  6  6  9  5  5  8  0  0  0  0
%c M  cc GPS ccc cccc cccc cccc cccc ccccc ccccc ccccc ccccc
%c cc cc ccc ccc cccc cccc cccc cccc ccccc ccccc ccccc ccccc
%f  0.0000000  0.000000000  0.00000000000  0.000000000000000
%f  0.0000000  0.000000000  0.00000000000  0.000000000000000
%i    0    0    0    0      0      0      0      0         0
%i    0    0    0    0      0      0      0      0         0
/* INFORMATION & ANALYSIS CENTER (IAC)            RAPID DATA
/* S/V CLOCKS ARE ALIGNED TO GNSS TIME                      
/* G:C1WC2W R:C1PC2P E:C1XC5X C:C2IC6I J:C1CC2S             
/* PCV:IGS14_2101 OL/AL:FES2004  NONE     YN ORB:CoN CLK:CoN
*  2020 06 23 21 15  0.00000000
PC01 -34371.407421  24459.951495    702.516433   -390.575451
PC02   4419.260230  41908.848514  -1128.440344    262.360636
PC03 -14644.423522  39528.683441  -1111.202117    850.793142
PC04 -39606.270611  14489.233661   -172.013942   -148.672452
PC05  21925.825269  36001.000992   -763.891258   -509.508686
PC06 -22337.487736  34507.719409   8718.711039    761.767780
PC07  -8163.927412  32901.527487  25581.206968     22.187840
PC08 -16465.828577  17793.762480 -34483.832268   -330.187168
PC09  -9993.662913  33896.413717  22954.834375    630.107417
PC10   4174.493373  39514.698206  14924.508534   -254.528807
PC11 -24363.084436  13074.204953   4025.519873   -447.289093
PC12 -20243.030895  -1472.255150  19190.363534    409.952352
PC13    189.367892  23114.731735 -35169.345474    506.463668
PC14 -14291.132279  10196.016245 -21674.004985    572.666540
PC16 -20506.080905  35127.083174  10822.674759   -611.532572
PC19  10217.580224 -19477.507550  17191.440116    453.491636
PC20  15958.275393   -243.931511  22913.516377   -847.841835
PC21 -12354.615571 -19863.872662 -15173.812194   -566.499628
PC22  -1550.272203 -27813.258937   1307.707653   -781.156249
PC23   4954.624319  18456.081345  20347.732086   -849.917255
PC24 -25709.784545  -4630.927977   9834.287280   -783.832731
PC25 -14132.764635  10485.426021  21660.071382   -662.179499
PC26 -22316.789538 -15349.725914  -6779.178082    729.209791
PC27  13416.183274   9719.196993 -22478.391223    352.593357
PC28  -5354.670462  19547.759013 -19186.397487   -209.039791
PC29      0.000000      0.000000      0.000000 999999.999999
PC30  23954.290970  -6383.935914 -12840.127778    336.381615
PC32  12543.468280  19769.902582  15214.328249   -877.126320
PC33 -10137.066275  19528.036195 -17168.510239   -808.353064
PC34 -24064.951637   6686.028269  12414.010561   -838.885278
PC35   4870.384710 -19822.463529  19037.768802   -782.676926
PC36  14582.970960  -9978.281463 -21572.986531   -852.315599
PC37  21523.082675  16139.045716   7428.018706   -855.970594
PE01 -22661.711211 -12584.898799  14287.609092   -883.946676
PE02  22659.407631  12502.133410 -14362.930786    142.505587
PE03  16988.657486   3266.058015  24023.641674   -313.103313
PE04 -18229.633356  17468.513024 -15442.656104   -551.918238
PE05   5765.963409  22303.851838  18598.433430   -369.089679
PE07   8749.969690 -28171.699142  -2338.949557   -399.665882
PE08  17989.180379 -17782.803799  15368.385490   6159.520560
PE09  -8502.912067  28256.423074   2476.525237   6018.872551
PE11  -9694.033062  16717.702600 -22426.204680   3651.859609
PE12 -26626.682323  10096.786855  -8044.854474   5740.438280
PE13   9935.336264 -16664.039434  22357.582701    401.817455
PE14  23819.933181  -5958.688089 -17975.319722  -1060.069809
PE15  26502.721766 -10292.288350   8250.571482    862.458481
PE18 -19591.812320  18249.618963   4015.293413  -1161.636116
PE19 -16071.814805  -5528.550971 -24223.494315     10.543975
PE21 -16676.101593 -24156.462778  -3788.511388   -606.251716
PE24    391.348810  21735.425151  20072.777743   5386.949780
PE25  16594.578463  24199.810484   3924.471584   -512.597326
PE26 -12892.573534 -13304.164025  23084.557526   3038.832765
PE27   -791.223958 -21853.483543 -19945.385801    192.126338
PE30  15810.399616  -6306.569008 -24223.559542   3802.333388
PE31 -15480.865165   6737.137954  24319.378687   -472.977773
PE33 -27505.688093  -2134.031805  10715.787380   -465.743573
PE36  12480.642125  13252.647468 -23341.600436    543.082207
PG01  13448.241448  13895.997319 -18585.507971     15.241994
PG02  10172.934942 -14203.044845  20634.200505   -476.762373
PG03  12126.442801  23624.378476   1758.418672   -218.367090
PG04   6954.366649  14957.187499  20823.167702   -106.223324
PG05   1516.530138 -21440.881969  15331.477012    -15.248303
PG06  21522.293015  -7285.602493  13839.740444   -293.233275
PG07  25744.562718   6112.883561   4725.725988   -311.367530
PG08  -2723.678302  21797.107475 -14732.585978    -38.577727
PG09  15672.892513   3683.672205  21078.784701   -241.630846
PG10 -15602.723950   1447.800532 -21388.260298   -379.983974
PG11   3152.828192  16363.335867 -21199.217722   -240.392686
PG12 -10366.875307 -24471.845564   1650.788767    102.527897
PG13  11411.975547 -22010.029488  -9508.335113     20.839811
PG14 -18851.745058  18037.974836  -4047.684618     -3.724928
PG15   -633.580770 -21900.623993 -15065.469986   -222.229475
PG16  -1756.522226  22411.527203  13568.341531   -174.141679
PG17  20026.137108 -11996.521532 -12205.027278    285.364572
PG18 -25495.854289  -6096.156670   4351.094159    228.344650
PG19  19905.390947 -16626.681008  -5938.099105   -141.218825
PG20 -19539.356166  -9481.604907 -15515.499523    527.450940
PG21 -25560.451687   3002.559981  -5225.322110     15.295950
PG22   8777.898193  24393.654450  -5912.311758   -776.341003
PG24 -11869.886145 -14500.372933 -19151.734127    -14.730617
PG25 -16226.912740 -18369.932482  10315.246303     16.024514
PG26  -9993.547853  13260.558860  20650.367838    230.865932
PG27 -11588.138350  23027.555554  -5750.469234   -328.267699
PG28  14565.332634  -2279.699935 -21505.019828    705.980323
PG29 -12142.178011  -8279.726433  22077.662050   -134.675823
PG30  25892.530097  -1272.721373  -6238.132651   -247.903635
PG31 -20815.564457   7923.923541  14760.614003    -51.092841
PG32 -19546.841644  13263.676456 -11909.100828    305.312419
PJ01 -20783.149358  29373.018756 -17405.034941   -282.726520
PJ02 -26040.503439  20738.990958  30737.613198     -0.703352
PJ03 -34036.290152  24696.648143   2335.740675     -4.451297
PJ07 -25400.496981  33659.112411     12.601752      0.002372
PR01  -1069.709066 -24661.541362  -6387.894405     63.514339
PR02  -9311.761213  -9562.211874 -21704.393817    433.023198
PR03 -10951.316592   9776.834011 -20801.420235     17.306814
PR04  -6187.420060  23366.625743  -8116.301609     53.814874
PR05   1890.217216  23717.461532   9186.665552     52.851132
PR07  10931.223072 -10425.400781  20606.400763    -37.834953
PR08   6316.518087 -23333.514135   8221.667974    -53.036878
PR09  21788.004633  10770.726418  -7849.178280    139.673704
PR11   2097.439684 -11875.354494 -22454.812161    -28.137651
PR12 -13255.497407 -17245.058137 -13310.856743    141.498198
PR13 -21640.620742 -12928.828271   3858.876062    -40.370680
PR14 -17080.038261  -1080.337933  18919.990072     52.598682
PR15  -2845.505013  11265.735458  22729.854266    106.906738
PR16  13902.447524  17045.225580  12793.689370     -4.332938
PR17 -23682.598173   9057.773344   2964.420759    335.541268
PR18 -16476.424984  13931.079737 -13554.062416     39.881031
PR19  -1306.173278  11507.246064 -22733.454600    -99.280724
PR20  17421.064268   1778.325360 -18565.509099   -415.011749
PR21  23595.488463  -9448.641093  -1996.020599   -133.427790
PR22  14741.106374 -13976.579695  15505.306792  57216.565534
PR23  -6092.900224  -8681.671717  23184.219433    314.129321
PR24 -18062.104813  -1574.805335  17958.548586      3.751590
PR26  13576.044621   4402.945673 -21126.976297   -392.107990
EOF
